OPTICUBE 04             
1 41851U 16067D   18178.21947291 -.00000337  00000-0 -24185-4 0  9998
2 41851  97.9241 266.4682 0009956 126.0915 234.1229 14.96678588 88595
AEROCUBE 8D             
1 41852U 16067E   18177.78946809  .00000831  00000-0  78424-4 0  9996
2 41852  97.9252 265.8750 0011080 128.5070 231.7146 14.96502662 88519
AEROCUBE 8C             
1 41853U 16067F   18178.20503834  .00000546  00000-0  53368-4 0  9995
2 41853  97.9257 266.2583 0011386 127.4276 232.7982 14.96471236 88576
PROMETHEUS 2-1          
1 41854U 16067G   18177.87648579  .00000496  00000-0  48830-4 0  9996
2 41854  97.9263 265.9368 0011641 128.2166 232.0105 14.96579937 88524
PROMETHEUS 2-3          
1 41855U 16067H   18178.21342934  .00000280  00000-0  29895-4 0  9993
2 41855  97.9265 266.2828 0011756 127.7626 232.4661 14.96577867 88570
ITF-2                   
1 41932U 98067KU  18177.74808191  .00053585  00000-0  32386-3 0  9992
2 41932  51.6315 291.5461 0003792 262.1960  97.8609 15.77062739 82272
WASEDA-SAT3             
1 41933U 98067KV  18177.74484754  .00091122  00000-0  38901-3 0  9996
2 41933  51.6341 283.8638 0003856 290.5039  69.5551 15.84423136 82378
AOBA-VELOX 3            
1 41935U 98067KX  18177.86502110  .00068288  00000-0  33668-3 0  9990
2 41935  51.6360 286.2665 0003761 278.0605  81.9970 15.81468661 82454
INS-1B                  
1 41954U 17008G   18177.91296116  .00001674  00000-0  74100-4 0  9992
2 41954  97.4454 241.7964 0008360 328.3868  31.6865 15.23040029 75485
BGUSAT                  
1 41999U 17008BD  18177.87586800  .00003104  00000-0  12861-3 0  9993
2 41999  97.4502 242.8462 0007823 349.2743  10.8326 15.24642307 74905
DIDO-2                  
1 42000U 17008BE  18177.85352611  .00001312  00000-0  58416-4 0  9992
2 42000  97.4472 242.1741 0008163 349.8275  10.2795 15.23221325 74874
PEASSS                  
1 42015U 17008BV  18177.89245307  .00001561  00000-0  67339-4 0  9995
2 42015  97.4469 242.6809 0006322   1.1459 358.9792 15.24036977 75398
AL-FARABI 1             
1 42016U 17008BW  18177.88244215  .00002012  00000-0  84857-4 0  9998
2 42016  97.4478 242.8754 0006191   1.8047 358.3211 15.24457289 75522
NAYIF-1 (EO-88)         
1 42017U 17008BX  18177.94217963  .00002023  00000-0  85251-4 0  9997
2 42017  97.4475 242.9416 0006173   1.9069 358.2191 15.24481882 75556
HAVELSAT                
1 42700U 98067LH  18177.81418280  .00044668  00000-0  33993-3 0  9997
2 42700  51.6354 305.5246 0004282 290.1892  69.8646 15.71798019 63535
CXBN-2                  
1 42704U 98067LM  18177.77470254  .00043396  00000-0  33693-3 0  9999
2 42704  51.6360 306.7790 0001871 240.2140 119.8672 15.71342400 63439
ICECUBE                 
1 42705U 98067LN  18178.18714424  .00099586  00000-0  49280-3 0  9997
2 42705  51.6457 296.1095 0003149 304.0465  56.0238 15.81243752 63673
PHOENIX                 
1 42706U 98067LP  18177.78587579  .00030628  00000-0  25746-3 0  9995
2 42706  51.6360 307.6017 0001189 242.6497 117.4379 15.69603605 63416
X-CUBESAT               
1 42707U 98067LQ  18177.72802729  .00047355  00000-0  35137-3 0  9997
2 42707  51.6325 305.6294 0001484 262.1530  97.9300 15.72380489 63429
QBEE50-LTU-OC           
1 42708U 98067LR  18177.93470394  .00041686  00000-0  32176-3 0  9991
2 42708  51.6362 305.5760 0001555 262.5870  97.4951 15.71500967 63407
ALTAIR PATHFINDER       
1 42711U 98067LS  18177.90123642  .00019350  00000-0  20061-3 0  9996
2 42711  51.6367 314.3908 0003535 217.0608 143.0144 15.64687856 62992
SHARC                   
1 42712U 98067LT  18177.96855538  .00030118  00000-0  30794-3 0  9998
2 42712  51.6381 315.6501 0002469 236.1497 123.9264 15.64756063 63229
ZA-AEROSAT              
1 42713U 98067LU  18177.82276266  .00029229  00000-0  25961-3 0  9990
2 42713  51.6352 310.0868 0002005 217.6105 142.4752 15.68284057 63040
LINK                    
1 42714U 98067LV  18177.87115971  .00107883  00000-0  51820-3 0  9997
2 42714  51.6253 297.4447 0002986 286.4896  73.5778 15.81854168 63325
CSUNSAT 1               
1 42715U 98067LW  18177.96555797  .00030337  00000-0  26220-3 0  9997
2 42715  51.6361 308.8110 0003418 217.7151 142.3606 15.68928192 63073
SPACECUBE               
1 42717U 98067LY  18177.83424544  .00044143  00000-0  34194-3 0  9999
2 42717  51.6334 306.3792 0003135 288.5163  71.5495 15.71386370 62460
HOOPOE                  
1 42718U 98067LZ  18177.91354467  .00053761  00000-0  36730-3 0  9999
2 42718  51.6349 303.1594 0003323 291.5838  68.4806 15.74255050 62514
CHALLENGER              
1 42721U 98067MA  18177.72740425  .00217586  28396-4  70915-3 0  9997
2 42721  51.6271 292.6876 0007786 308.1882  51.8422 15.90217998 62335
NJUST-1                 
1 42722U 98067MB  18177.95306182  .00024872  00000-0  23072-3 0  9995
2 42722  51.6361 310.9805 0005225 269.4322  90.6075 15.67296604 62112
UNSW-ECO                
1 42723U 98067MC  18177.97299987  .00054181  00000-0  35721-3 0  9992
2 42723  51.6385 302.8434 0004958 278.9147  81.1291 15.75068050 62205
LILACSAT-1              
1 42725U 98067ME  18177.97920322  .00035433  00000-0  29331-3 0  9997
2 42725  51.6362 308.1438 0004412 273.0077  87.0415 15.69890709 62051
NSIGHT-1                
1 42726U 98067MF  18177.84878898  .00010966  00000-0  13051-3 0  9990
2 42726  51.6391 318.6017 0004794 268.5050  91.5395 15.61680492 61915
SNUSAT-1                
1 42727U 98067MG  18177.60913297  .00037712  00000-0  31260-3 0  9998
2 42727  51.6343 310.1172 0005717 236.3029 123.7424 15.69819367 61966
I-INSPIRE II            
1 42731U 98067ML  18177.77200749  .00057559  00000-0  36974-3 0  9990
2 42731  51.6355 302.9194 0004726 238.2472 121.8067 15.75641578 61965
POLYITAN-2-SAU          
1 42732U 98067MM  18177.73473174  .00047841  00000-0  35811-3 0  9993
2 42732  51.6348 306.4627 0004929 228.1964 131.8614 15.72156272 61910
SNUSAT-1B               
1 42733U 98067MN  18177.83101246  .00042123  00000-0  33756-3 0  9997
2 42733  51.6356 307.8763 0005146 229.3647 130.6903 15.70585747 61907
EXALTA-1                
1 42734U 98067MP  18177.94053494  .00063782  00000-0  39507-3 0  9995
2 42734  51.6294 301.7595 0006050 265.2598  94.7712 15.76420867 61943
BEEAGLESAT              
1 42736U 98067MR  18177.90004464  .00034232  00000-0  29241-3 0  9998
2 42736  51.6352 309.0882 0005438 267.9577  92.0797 15.69139919 61957
UCLSAT                  
1 42765U 17036A   18177.87445477  .00001691  00000-0  77220-4 0  9990
2 42765  97.4001 237.5670 0013077  48.8328 311.4034 15.21881734 56779
LITUANICASAT-2          
1 42768U 17036D   18177.93473916  .00002924  00000-0  13289-3 0  9993
2 42768  97.4019 237.2219 0016661  38.0459 322.1950 15.21421433 56047
AALTO-1                 
1 42775U 17036L   18177.83707927  .00001087  00000-0  52374-4 0  9990
2 42775  97.3995 237.0023 0015167  36.7966 323.4308 15.20770618 55968
URSA MAIOR              
1 42776U 17036M   18177.88895136  .00001225  00000-0  58453-4 0  9994
2 42776  97.4002 237.1061 0015007  36.9416 323.2850 15.20850595 55971
COMPASS 2               
1 42777U 17036N   18177.94088419  .00002429  00000-0  10991-3 0  9991
2 42777  97.4024 237.5596 0013976  40.6071 319.6205 15.21773077 55990
DIAMOND RED             
1 42783U 17036U   18177.87589156  .00001428  00000-0  66447-4 0  9990
2 42783  97.4003 237.4196 0013674  48.5353 311.7055 15.21485260 55983
PEGASUS                 
1 42784U 17036V   18177.84734927  .00001629  00000-0  74906-4 0  9998
2 42784  97.4005 237.4643 0013578  48.6361 311.6041 15.21690527 55984
DIAMOND GREEN           
1 42785U 17036W   18177.87476468  .00001427  00000-0  66390-4 0  9999
2 42785  97.4005 237.4319 0013578  49.1547 311.0864 15.21487707 56057
DIAMOND BLUE            
1 42786U 17036X   18177.87390664  .00001429  00000-0  66501-4 0  9999
2 42786  97.4005 237.4312 0013418  49.3954 310.8447 15.21487134 56056
NUDTSAT                 
1 42787U 17036Y   18177.89343763  .00002612  00000-0  11629-3 0  9995
2 42787  97.4012 237.7199 0013097  48.7046 311.5315 15.22277517 55840
SUCHAI                  
1 42788U 17036Z   18177.73714664  .00001861  00000-0  84484-4 0  9996
2 42788  97.4007 237.4580 0013213  49.0836 311.1542 15.21962882 56043
SKCUBE                  
1 42789U 17036AA  18177.93404926  .00001766  00000-0  80447-4 0  9995
2 42789  97.4004 237.6456 0013028  48.4993 311.7359 15.21924218 55992
VZLUSAT-1               
1 42790U 17036AB  18177.75114764  .00002456  00000-0  10949-3 0  9991
2 42790  97.4009 237.5874 0012681  49.6947 310.5396 15.22297495 55975
ROBUSTA-1B              
1 42792U 17036AD  18177.83606902  .00001873  00000-0  84770-4 0  9998
2 42792  97.4003 237.6135 0012633  49.9261 310.3081 15.22067382 55992
CICERO 6                
1 42793U 17036AE  18178.16010735  .00001258  00000-0  58244-4 0  9993
2 42793  97.3996 237.9254 0011796  50.2884 309.9390 15.21900157 56110
D-SAT                   
1 42794U 17036AF  18178.11094056  .00000315  00000-0  33218-4 0  9994
2 42794  97.5906 232.3937 0125596 248.9844 109.7902 14.90877903 55208
TOKI                    
1 42820U 98067MU  18177.78475709  .00032869  00000-0  29171-3 0  9998
2 42820  51.6353 312.0781 0002538 208.2578 151.8281 15.68238282 55363
MAZAALAI (NUMSAT-1)     
1 42822U 98067MW  18177.75633537  .00031290  00000-0  28134-3 0  9997
2 42822  51.6356 312.6445 0002574 213.2938 146.7897 15.67944193 55356
BRAC ONNESHA            
1 42823U 98067MX  18177.81549209  .00031401  00000-0  28102-3 0  9996
2 42823  51.6360 312.3073 0004879 230.4126 129.6440 15.68048632 55365
NIGERIAEDUSAT-1         
1 42824U 98067MY  18177.84094340  .00031410  00000-0  28354-3 0  9990
2 42824  51.6366 312.4946 0004775 230.7410 129.3163 15.67836454 55361
CORVUS BC2              
1 42846U 17042X   18177.79798386  .00000309  00000-0  35960-4 0  9998
2 42846  97.5969  80.3250 0010127 155.8464 204.3232 14.91824967 51804
